STARLINK-32560          
1 61982U 24210Z   26068.62945189  .00027930  00000+0  10189-2 0  9992
2 61982  43.0062 179.9209 0003359 300.7869  59.2652 15.27631693 74871
LIZZIESAT-2 (LS-2)      
1 62383U 24247G   26068.49140277  .00009388  00000+0  34517-3 0  9997
2 62383  44.9909 117.0823 0004092 327.5136  32.5495 15.28222796 67716
